STARLINK-36526          
1 67508U 26012R   26034.16668981 -.00288298  00000+0 -14036-2 0  9991
2 67508  42.9966 152.9428 0001583 270.0957 357.7051 15.82150817  3517
STARLINK-36541          
1 67509U 26012S   26034.16668981 -.02414938  00000+0 -18783-1 0  9998
2 67509  42.9992 153.0548 0001188 268.2163 314.7128 15.74465946  3466
STARLINK-36549          
1 67510U 26012T   26034.16668981 -.00908897  00000+0 -46457-2 0  9990
2 67510  42.9957 152.7159 0001451 272.8490  83.8803 15.82655902  3466
STARLINK-36540          
1 67511U 26012U   26034.16668981 -.02415309  00000+0 -18600-1 0  9992
2 67511  42.9991 153.0395 0001226 266.5026 322.8060 15.74691328  3516
STARLINK-36538          
1 67512U 26012V   26034.16668981 -.00109210  00000+0 -52214-3 0  9993
2 67512  42.9970 152.9097 0001345 267.6230  13.2165 15.82037622  3519
STARLINK-36531          
1 67513U 26012W   26034.16668981  .00021961  00000+0  10667-3 0  9994
2 67513  42.9973 152.8992 0001846 267.3290  17.9225 15.81993647  3464
STARLINK-36530          
1 67514U 26012X   26034.16668981 -.00212403  00000+0 -10272-2 0  9991
2 67514  42.9970 152.8838 0001705 268.9082  22.1635 15.82094847  3469
STARLINK-36543          
1 67515U 26012Y   26034.16668981 -.01580837  00000+0 -84134-2 0  9990
2 67515  42.9967 152.8704 0001574 279.0206  17.4355 15.82404222  3461
STARLINK-36537          
1 67516U 26012Z   26034.16668981  .00082451  00000+0  39117-3 0  9999
2 67516  42.9967 152.8372 0001073 277.6838  31.5911 15.81972628  3466
STARLINK-36544          
1 67517U 26012AA  26034.16668981 -.02717305  00000+0 -14600-1 0  9995
2 67517  42.9924 153.0126 0001970 357.2489 241.5055 15.82981017  3514
STARLINK-36412          
1 67518U 26012AB  26034.16668981 -.00005679  00000+0 -24467-4 0  9993
2 67518  42.9964 152.7950 0001368 279.1179  47.0418 15.82007079  3462
STARLINK-36415          
1 67519U 26012AC  26034.16668981  .00020850  00000+0  10134-3 0  9995
2 67519  42.9965 152.7776 0001868 253.0841  79.4798 15.82008908  3677
